[{"OBJECT_NAME":"ONEWEB-0095","OBJECT_ID":"2020-020N","EPOCH":"2026-02-13T23:31:22.641024","MEAN_MOTION":13.11417447,"ECCENTRICITY":0.00026288,"INCLINATION":87.883,"RA_OF_ASC_NODE":45.5719,"ARG_OF_PERICENTER":83.9114,"MEAN_ANOMALY":276.2313,"EPHEMERIS_TYPE":0,"CLASSIFICATION_TYPE":"U","NORAD_CAT_ID":45436,"ELEMENT_SET_NO":999,"REV_AT_EPOCH":28652,"BSTAR":0.001228854,"MEAN_MOTION_DOT":4.48e-6,"MEAN_MOTION_DDOT":0},{"OBJECT_NAME":"ONEWEB-0092","OBJECT_ID":"2020-020P","EPOCH":"2026-02-13T22:50:52.866528","MEAN_MOTION":13.11415873,"ECCENTRICITY":0.00021269,"INCLINATION":87.8829,"RA_OF_ASC_NODE":45.5782,"ARG_OF_PERICENTER":80.6742,"MEAN_ANOMALY":279.4627,"EPHEMERIS_TYPE":0,"CLASSIFICATION_TYPE":"U","NORAD_CAT_ID":45437,"ELEMENT_SET_NO":999,"REV_AT_EPOCH":28663,"BSTAR":-0.0013757433,"MEAN_MOTION_DOT":-4.75e-6,"MEAN_MOTION_DDOT":0},{"OBJECT_NAME":"ONEWEB-0085","OBJECT_ID":"2020-020Q","EPOCH":"2026-02-13T23:43:22.556928","MEAN_MOTION":13.11417116,"ECCENTRICITY":0.00018696,"INCLINATION":87.8826,"RA_OF_ASC_NODE":45.5752,"ARG_OF_PERICENTER":86.5442,"MEAN_ANOMALY":273.59,"EPHEMERIS_TYPE":0,"CLASSIFICATION_TYPE":"U","NORAD_CAT_ID":45438,"ELEMENT_SET_NO":999,"REV_AT_EPOCH":28652,"BSTAR":0.0016126471,"MEAN_MOTION_DOT":5.84e-6,"MEAN_MOTION_DDOT":0},{"OBJECT_NAME":"ONEWEB-0096","OBJECT_ID":"2020-020R","EPOCH":"2026-02-13T23:45:48.926304","MEAN_MOTION":13.11416865,"ECCENTRICITY":0.00018131,"INCLINATION":87.8834,"RA_OF_ASC_NODE":45.5616,"ARG_OF_PERICENTER":86.0199,"MEAN_ANOMALY":274.1136,"EPHEMERIS_TYPE":0,"CLASSIFICATION_TYPE":"U","NORAD_CAT_ID":45439,"ELEMENT_SET_NO":999,"REV_AT_EPOCH":28651,"BSTAR":0.0016371521,"MEAN_MOTION_DOT":5.93e-6,"MEAN_MOTION_DDOT":0},{"OBJECT_NAME":"ONEWEB-0037","OBJECT_ID":"2020-020S","EPOCH":"2026-02-14T01:07:35.868288","MEAN_MOTION":13.11419801,"ECCENTRICITY":0.00019395,"INCLINATION":87.8843,"RA_OF_ASC_NODE":45.5248,"ARG_OF_PERICENTER":86.5952,"MEAN_ANOMALY":273.5398,"EPHEMERIS_TYPE":0,"CLASSIFICATION_TYPE":"U","NORAD_CAT_ID":45440,"ELEMENT_SET_NO":999,"REV_AT_EPOCH":28655,"BSTAR":0.00021180037,"MEAN_MOTION_DOT":8.8e-7,"MEAN_MOTION_DDOT":0},{"OBJECT_NAME":"ONEWEB-0042","OBJECT_ID":"2020-020T","EPOCH":"2026-02-14T01:20:49.154208","MEAN_MOTION":13.11422919,"ECCENTRICITY":0.00017701,"INCLINATION":87.8835,"RA_OF_ASC_NODE":45.5461,"ARG_OF_PERICENTER":84.5734,"MEAN_ANOMALY":275.5596,"EPHEMERIS_TYPE":0,"CLASSIFICATION_TYPE":"U","NORAD_CAT_ID":45441,"ELEMENT_SET_NO":999,"REV_AT_EPOCH":28652,"BSTAR":0.0010723226,"MEAN_MOTION_DOT":3.93e-6,"MEAN_MOTION_DDOT":0},{"OBJECT_NAME":"ONEWEB-0098","OBJECT_ID":"2020-020U","EPOCH":"2026-02-14T01:14:54.671424","MEAN_MOTION":13.1141949,"ECCENTRICITY":0.00018378,"INCLINATION":87.8834,"RA_OF_ASC_NODE":45.5586,"ARG_OF_PERICENTER":91.3803,"MEAN_ANOMALY":268.7536,"EPHEMERIS_TYPE":0,"CLASSIFICATION_TYPE":"U","NORAD_CAT_ID":45442,"ELEMENT_SET_NO":999,"REV_AT_EPOCH":28650,"BSTAR":0.00074626884,"MEAN_MOTION_DOT":2.77e-6,"MEAN_MOTION_DDOT":0},{"OBJECT_NAME":"ONEWEB-0055","OBJECT_ID":"2020-020V","EPOCH":"2026-02-14T00:50:30.683904","MEAN_MOTION":13.11417508,"ECCENTRICITY":0.00018555,"INCLINATION":87.883,"RA_OF_ASC_NODE":45.5625,"ARG_OF_PERICENTER":88.805,"MEAN_ANOMALY":271.3291,"EPHEMERIS_TYPE":0,"CLASSIFICATION_TYPE":"U","NORAD_CAT_ID":45443,"ELEMENT_SET_NO":999,"REV_AT_EPOCH":28647,"BSTAR":-0.0010953504,"MEAN_MOTION_DOT":-3.75e-6,"MEAN_MOTION_DDOT":0},{"OBJECT_NAME":"ONEWEB-0093","OBJECT_ID":"2020-020W","EPOCH":"2026-02-14T00:15:18.075168","MEAN_MOTION":13.1141535,"ECCENTRICITY":0.00017266,"INCLINATION":87.8831,"RA_OF_ASC_NODE":45.5561,"ARG_OF_PERICENTER":75.0779,"MEAN_ANOMALY":285.054,"EPHEMERIS_TYPE":0,"CLASSIFICATION_TYPE":"U","NORAD_CAT_ID":45444,"ELEMENT_SET_NO":999,"REV_AT_EPOCH":28653,"BSTAR":-0.00032172223,"MEAN_MOTION_DOT":-1.01e-6,"MEAN_MOTION_DDOT":0},{"OBJECT_NAME":"ONEWEB-0029","OBJECT_ID":"2020-020X","EPOCH":"2026-02-14T00:38:16.917216","MEAN_MOTION":13.11415608,"ECCENTRICITY":0.00017286,"INCLINATION":87.8831,"RA_OF_ASC_NODE":45.5656,"ARG_OF_PERICENTER":85.5761,"MEAN_ANOMALY":274.5564,"EPHEMERIS_TYPE":0,"CLASSIFICATION_TYPE":"U","NORAD_CAT_ID":45445,"ELEMENT_SET_NO":999,"REV_AT_EPOCH":28651,"BSTAR":-0.0015674484,"MEAN_MOTION_DOT":-5.43e-6,"MEAN_MOTION_DDOT":0},{"OBJECT_NAME":"ONEWEB-0068","OBJECT_ID":"2020-020Y","EPOCH":"2026-02-14T00:14:54.163104","MEAN_MOTION":13.11414781,"ECCENTRICITY":0.00016977,"INCLINATION":87.8831,"RA_OF_ASC_NODE":45.5584,"ARG_OF_PERICENTER":83.9223,"MEAN_ANOMALY":276.2098,"EPHEMERIS_TYPE":0,"CLASSIFICATION_TYPE":"U","NORAD_CAT_ID":45446,"ELEMENT_SET_NO":999,"REV_AT_EPOCH":28645,"BSTAR":-0.00038985814,"MEAN_MOTION_DOT":-1.25e-6,"MEAN_MOTION_DDOT":0},{"OBJECT_NAME":"ONEWEB-0046","OBJECT_ID":"2020-020Z","EPOCH":"2026-02-14T00:02:54.005280","MEAN_MOTION":13.11415993,"ECCENTRICITY":0.00019043,"INCLINATION":87.8834,"RA_OF_ASC_NODE":45.567,"ARG_OF_PERICENTER":78.4876,"MEAN_ANOMALY":281.6466,"EPHEMERIS_TYPE":0,"CLASSIFICATION_TYPE":"U","NORAD_CAT_ID":45447,"ELEMENT_SET_NO":999,"REV_AT_EPOCH":28646,"BSTAR":0.00041109058,"MEAN_MOTION_DOT":1.58e-6,"MEAN_MOTION_DDOT":0},{"OBJECT_NAME":"ONEWEB-0063","OBJECT_ID":"2020-020AA","EPOCH":"2026-02-14T04:24:08.069472","MEAN_MOTION":13.11418629,"ECCENTRICITY":0.00020169,"INCLINATION":87.8833,"RA_OF_ASC_NODE":45.5286,"ARG_OF_PERICENTER":82.8635,"MEAN_ANOMALY":277.2723,"EPHEMERIS_TYPE":0,"CLASSIFICATION_TYPE":"U","NORAD_CAT_ID":45448,"ELEMENT_SET_NO":999,"REV_AT_EPOCH":28657,"BSTAR":-0.0013381863,"MEAN_MOTION_DOT":-4.62e-6,"MEAN_MOTION_DDOT":0},{"OBJECT_NAME":"ONEWEB-0019","OBJECT_ID":"2020-020AB","EPOCH":"2026-02-13T23:50:28.972896","MEAN_MOTION":13.11417993,"ECCENTRICITY":0.00018664,"INCLINATION":87.8817,"RA_OF_ASC_NODE":45.5634,"ARG_OF_PERICENTER":93.335,"MEAN_ANOMALY":266.7991,"EPHEMERIS_TYPE":0,"CLASSIFICATION_TYPE":"U","NORAD_CAT_ID":45449,"ELEMENT_SET_NO":999,"REV_AT_EPOCH":28639,"BSTAR":0.0014570827,"MEAN_MOTION_DOT":5.29e-6,"MEAN_MOTION_DDOT":0},{"OBJECT_NAME":"ONEWEB-0094","OBJECT_ID":"2020-020AC","EPOCH":"2026-02-13T12:04:13.571040","MEAN_MOTION":13.1764845,"ECCENTRICITY":0.00018365,"INCLINATION":87.9121,"RA_OF_ASC_NODE":30.4056,"ARG_OF_PERICENTER":84.1327,"MEAN_ANOMALY":276.0014,"EPHEMERIS_TYPE":0,"CLASSIFICATION_TYPE":"U","NORAD_CAT_ID":45450,"ELEMENT_SET_NO":999,"REV_AT_EPOCH":29002,"BSTAR":0.0003399835,"MEAN_MOTION_DOT":1.45e-6,"MEAN_MOTION_DDOT":0},{"OBJECT_NAME":"ONEWEB-0087","OBJECT_ID":"2020-020AD","EPOCH":"2026-02-14T00:58:51.207744","MEAN_MOTION":13.11419038,"ECCENTRICITY":0.00016039,"INCLINATION":87.8845,"RA_OF_ASC_NODE":45.5216,"ARG_OF_PERICENTER":82.8395,"MEAN_ANOMALY":277.2915,"EPHEMERIS_TYPE":0,"CLASSIFICATION_TYPE":"U","NORAD_CAT_ID":45451,"ELEMENT_SET_NO":999,"REV_AT_EPOCH":28644,"BSTAR":-0.00029675773,"MEAN_MOTION_DOT":-9.2e-7,"MEAN_MOTION_DDOT":0},{"OBJECT_NAME":"ONEWEB-0082","OBJECT_ID":"2020-020AE","EPOCH":"2026-02-14T00:54:09.900576","MEAN_MOTION":13.11418076,"ECCENTRICITY":0.00016433,"INCLINATION":87.8839,"RA_OF_ASC_NODE":45.5473,"ARG_OF_PERICENTER":85.0515,"MEAN_ANOMALY":275.0801,"EPHEMERIS_TYPE":0,"CLASSIFICATION_TYPE":"U","NORAD_CAT_ID":45452,"ELEMENT_SET_NO":999,"REV_AT_EPOCH":28653,"BSTAR":-0.00077324276,"MEAN_MOTION_DOT":-2.61e-6,"MEAN_MOTION_DDOT":0}]
