ONEWEB-0095             
1 45436U 20020N   26044.98012316  .00000448  00000+0  12289-2 0  9991
2 45436  87.8830  45.5719 0002628  83.9114 276.2313 13.11417447286523
ONEWEB-0092             
1 45437U 20020P   26044.95200077 -.00000475  00000+0 -13757-2 0  9995
2 45437  87.8829  45.5782 0002126  80.6742 279.4627 13.11415873286632
ONEWEB-0085             
1 45438U 20020Q   26044.98845552  .00000584  00000+0  16126-2 0  9994
2 45438  87.8826  45.5752 0001869  86.5442 273.5900 13.11417116286521
ONEWEB-0096             
1 45439U 20020R   26044.99014961  .00000593  00000+0  16372-2 0  9991
2 45439  87.8834  45.5616 0001813  86.0199 274.1136 13.11416865286510
ONEWEB-0037             
1 45440U 20020S   26045.04694292  .00000088  00000+0  21180-3 0  9994
2 45440  87.8843  45.5248 0001939  86.5952 273.5398 13.11419801286554
ONEWEB-0042             
1 45441U 20020T   26045.05612447  .00000393  00000+0  10723-2 0  9997
2 45441  87.8835  45.5461 0001770  84.5734 275.5596 13.11422919286525
ONEWEB-0098             
1 45442U 20020U   26045.05202166  .00000277  00000+0  74627-3 0  9996
2 45442  87.8834  45.5586 0001837  91.3803 268.7536 13.11419490286506
ONEWEB-0055             
1 45443U 20020V   26045.03507736 -.00000375  00000+0 -10954-2 0  9999
2 45443  87.8830  45.5625 0001855  88.8050 271.3291 13.11417508286474
ONEWEB-0093             
1 45444U 20020W   26045.01062587 -.00000101  00000+0 -32172-3 0  9992
2 45444  87.8831  45.5561 0001726  75.0779 285.0540 13.11415350286537
ONEWEB-0029             
1 45445U 20020X   26045.02658469 -.00000543  00000+0 -15674-2 0  9991
2 45445  87.8831  45.5656 0001728  85.5761 274.5564 13.11415608286515
ONEWEB-0068             
1 45446U 20020Y   26045.01034911 -.00000125  00000+0 -38986-3 0  9999
2 45446  87.8831  45.5584 0001697  83.9223 276.2098 13.11414781286451
ONEWEB-0046             
1 45447U 20020Z   26045.00201395  .00000158  00000+0  41109-3 0  9996
2 45447  87.8834  45.5670 0001904  78.4876 281.6466 13.11415993286461
ONEWEB-0063             
1 45448U 20020AA  26045.18342673 -.00000462  00000+0 -13382-2 0  9992
2 45448  87.8833  45.5286 0002016  82.8635 277.2723 13.11418629286579
ONEWEB-0019             
1 45449U 20020AB  26044.99339089  .00000529  00000+0  14571-2 0  9991
2 45449  87.8817  45.5634 0001866  93.3350 266.7991 13.11417993286395
ONEWEB-0094             
1 45450U 20020AC  26044.50293485  .00000145  00000+0  33998-3 0  9998
2 45450  87.9121  30.4056 0001836  84.1327 276.0014 13.17648450290021
ONEWEB-0087             
1 45451U 20020AD  26045.04087046 -.00000092  00000+0 -29676-3 0  9994
2 45451  87.8845  45.5216 0001603  82.8395 277.2915 13.11419038286447
ONEWEB-0082             
1 45452U 20020AE  26045.03761459 -.00000261  00000+0 -77324-3 0  9992
2 45452  87.8839  45.5473 0001643  85.0515 275.0801 13.11418076286530
